{
  "type": "FeatureCollection",
  "features": [
    {
      "type": "Feature",
      "properties": {
        "norad_id": 44793,
        "name": "BEIDOU-3 M22 (C44)",
        "group": "beidou",
        "lat": -51.50644073327779,
        "lon": -118.78363220198825,
        "alt_km": 21535.680320558426,
        "timestamp": "2025-12-02T23:34:15.781879+00:00",
        "meta_object_name": "BEIDOU-3 M22 (C44)",
        "meta_object_id": "2019-078A",
        "meta_epoch": "2025-12-02T00:28:58.554624",
        "meta_mean_motion": 1.86231817,
        "meta_eccentricity": 0.00056333,
        "meta_inclination": 54.1183,
        "meta_ra_of_asc_node": 306.7625,
        "meta_arg_of_pericenter": 22.616,
        "meta_mean_anomaly": 337.398,
        "meta_ephemeris_type": 0,
        "meta_classification_type": "U",
        "meta_norad_cat_id": 44793,
        "meta_element_set_no": 999,
        "meta_rev_at_epoch": 4097,
        "meta_bstar": 0,
        "meta_mean_motion_dot": -6.1e-07,
        "meta_mean_motion_ddot": 0,
        "tle_line1": "1 44793U 19078A   25336.02012216 -.00000061  00000+0  00000+0 0  9991",
        "tle_line2": "2 44793  54.1183 306.7625 0005633  22.6160 337.3980  1.86231817 40974"
      },
      "geometry": {
        "type": "Point",
        "coordinates": [
          -118.78363220198825,
          -51.50644073327779
        ]
      }
    },
    {
      "type": "Feature",
      "properties": {
        "norad_id": 44794,
        "name": "BEIDOU-3 M21 (C43)",
        "group": "beidou",
        "lat": -10.404911759177036,
        "lon": 134.31657964426594,
        "alt_km": 21540.739671135772,
        "timestamp": "2025-12-02T23:34:15.781890+00:00",
        "meta_object_name": "BEIDOU-3 M21 (C43)",
        "meta_object_id": "2019-078B",
        "meta_epoch": "2025-12-01T02:00:26.030304",
        "meta_mean_motion": 1.86227539,
        "meta_eccentricity": 0.00038706,
        "meta_inclination": 54.0922,
        "meta_ra_of_asc_node": 306.7607,
        "meta_arg_of_pericenter": 10.0971,
        "meta_mean_anomaly": 349.9036,
        "meta_ephemeris_type": 0,
        "meta_classification_type": "U",
        "meta_norad_cat_id": 44794,
        "meta_element_set_no": 999,
        "meta_rev_at_epoch": 4096,
        "meta_bstar": 0,
        "meta_mean_motion_dot": -5.7e-07,
        "meta_mean_motion_ddot": 0,
        "tle_line1": "1 44794U 19078B   25335.08363461 -.00000057  00000+0  00000+0 0  9993",
        "tle_line2": "2 44794  54.0922 306.7607 0003870  10.0971 349.9036  1.86227539 40963"
      },
      "geometry": {
        "type": "Point",
        "coordinates": [
          134.31657964426594,
          -10.404911759177036
        ]
      }
    },
    {
      "type": "Feature",
      "properties": {
        "norad_id": 44864,
        "name": "BEIDOU-3 M19 (C41)",
        "group": "beidou",
        "lat": 23.572131779576534,
        "lon": 86.13215061163169,
        "alt_km": 21536.86485886402,
        "timestamp": "2025-12-02T23:34:15.781902+00:00",
        "meta_object_name": "BEIDOU-3 M19 (C41)",
        "meta_object_id": "2019-090A",
        "meta_epoch": "2025-12-01T20:54:26.017344",
        "meta_mean_motion": 1.86231094,
        "meta_eccentricity": 0.00175122,
        "meta_inclination": 56.3837,
        "meta_ra_of_asc_node": 69.3227,
        "meta_arg_of_pericenter": 284.7988,
        "meta_mean_anomaly": 78.8343,
        "meta_ephemeris_type": 0,
        "meta_classification_type": "U",
        "meta_norad_cat_id": 44864,
        "meta_element_set_no": 999,
        "meta_rev_at_epoch": 4056,
        "meta_bstar": 0,
        "meta_mean_motion_dot": -4.4e-07,
        "meta_mean_motion_ddot": 0,
        "tle_line1": "1 44864U 19090A   25335.87113446 -.00000044  00000+0  00000+0 0  9994",
        "tle_line2": "2 44864  56.3837  69.3227 0017512 284.7988  78.8343  1.86231094 40563"
      },
      "geometry": {
        "type": "Point",
        "coordinates": [
          86.13215061163169,
          23.572131779576534
        ]
      }
    },
    {
      "type": "Feature",
      "properties": {
        "norad_id": 44865,
        "name": "BEIDOU-3 M20 (C42)",
        "group": "beidou",
        "lat": 47.266167968224636,
        "lon": -156.6457525798371,
        "alt_km": 21563.2669036571,
        "timestamp": "2025-12-02T23:34:15.781913+00:00",
        "meta_object_name": "BEIDOU-3 M20 (C42)",
        "meta_object_id": "2019-090B",
        "meta_epoch": "2025-12-02T06:29:14.465184",
        "meta_mean_motion": 1.86231065,
        "meta_eccentricity": 0.0014652,
        "meta_inclination": 56.3856,
        "meta_ra_of_asc_node": 69.3436,
        "meta_arg_of_pericenter": 297.6266,
        "meta_mean_anomaly": 63.245,
        "meta_ephemeris_type": 0,
        "meta_classification_type": "U",
        "meta_norad_cat_id": 44865,
        "meta_element_set_no": 999,
        "meta_rev_at_epoch": 4055,
        "meta_bstar": 0,
        "meta_mean_motion_dot": -4.6e-07,
        "meta_mean_motion_ddot": 0,
        "tle_line1": "1 44865U 19090B   25336.27030631 -.00000046  00000+0  00000+0 0  9996",
        "tle_line2": "2 44865  56.3856  69.3436 0014652 297.6266  63.2450  1.86231065 40555"
      },
      "geometry": {
        "type": "Point",
        "coordinates": [
          -156.6457525798371,
          47.266167968224636
        ]
      }
    },
    {
      "type": "Feature",
      "properties": {
        "norad_id": 45344,
        "name": "BEIDOU-3 G2 (C60)",
        "group": "beidou",
        "lat": 2.9117932003789773,
        "lon": 145.67702575321783,
        "alt_km": 35804.19148650801,
        "timestamp": "2025-12-02T23:34:15.781924+00:00",
        "meta_object_name": "BEIDOU-3 G2 (C60)",
        "meta_object_id": "2020-017A",
        "meta_epoch": "2025-12-02T09:01:44.857632",
        "meta_mean_motion": 1.00270444,
        "meta_eccentricity": 0.0004538,
        "meta_inclination": 2.9802,
        "meta_ra_of_asc_node": 43.5434,
        "meta_arg_of_pericenter": 263.8442,
        "meta_mean_anomaly": 339.5888,
        "meta_ephemeris_type": 0,
        "meta_classification_type": "U",
        "meta_norad_cat_id": 45344,
        "meta_element_set_no": 999,
        "meta_rev_at_epoch": 2128,
        "meta_bstar": 0,
        "meta_mean_motion_dot": -1.22e-06,
        "meta_mean_motion_ddot": 0,
        "tle_line1": "1 45344U 20017A   25336.37621363 -.00000122  00000+0  00000+0 0  9994",
        "tle_line2": "2 45344   2.9802  43.5434 0004538 263.8442 339.5888  1.00270444 21284"
      },
      "geometry": {
        "type": "Point",
        "coordinates": [
          145.67702575321783,
          2.9117932003789773
        ]
      }
    },
    {
      "type": "Feature",
      "properties": {
        "norad_id": 45807,
        "name": "BEIDOU-3 G3 (C61)",
        "group": "beidou",
        "lat": 1.835271314847849,
        "lon": 176.16354553526102,
        "alt_km": 35807.30409533689,
        "timestamp": "2025-12-02T23:34:15.781936+00:00",
        "meta_object_name": "BEIDOU-3 G3 (C61)",
        "meta_object_id": "2020-040A",
        "meta_epoch": "2025-12-02T03:49:07.508352",
        "meta_mean_motion": 1.00267316,
        "meta_eccentricity": 0.00049793,
        "meta_inclination": 1.9634,
        "meta_ra_of_asc_node": 66.509,
        "meta_arg_of_pericenter": 305.9594,
        "meta_mean_anomaly": 226.6097,
        "meta_ephemeris_type": 0,
        "meta_classification_type": "U",
        "meta_norad_cat_id": 45807,
        "meta_element_set_no": 999,
        "meta_rev_at_epoch": 2009,
        "meta_bstar": 0,
        "meta_mean_motion_dot": -3.33e-06,
        "meta_mean_motion_ddot": 0,
        "tle_line1": "1 45807U 20040A   25336.15911468 -.00000333  00000+0  00000+0 0  9992",
        "tle_line2": "2 45807   1.9634  66.5090 0004979 305.9594 226.6097  1.00267316 20098"
      },
      "geometry": {
        "type": "Point",
        "coordinates": [
          176.16354553526102,
          1.835271314847849
        ]
      }
    },
    {
      "type": "Feature",
      "properties": {
        "norad_id": 56564,
        "name": "BEIDOU-3 G4 (C62)",
        "group": "beidou",
        "lat": -0.8356484314120506,
        "lon": -134.28450001386142,
        "alt_km": 35777.25665411275,
        "timestamp": "2025-12-02T23:34:15.781948+00:00",
        "meta_object_name": "BEIDOU-3 G4 (C62)",
        "meta_object_id": "2023-066A",
        "meta_epoch": "2025-12-02T10:54:38.635776",
        "meta_mean_motion": 1.00271041,
        "meta_eccentricity": 0.0003393,
        "meta_inclination": 0.8391,
        "meta_ra_of_asc_node": 301.148,
        "meta_arg_of_pericenter": 234.296,
        "meta_mean_anomaly": 219.8462,
        "meta_ephemeris_type": 0,
        "meta_classification_type": "U",
        "meta_norad_cat_id": 56564,
        "meta_element_set_no": 999,
        "meta_rev_at_epoch": 942,
        "meta_bstar": 0,
        "meta_mean_motion_dot": -9e-07,
        "meta_mean_motion_ddot": 0,
        "tle_line1": "1 56564U 23066A   25336.45461384 -.00000090  00000+0  00000+0 0  9995",
        "tle_line2": "2 56564   0.8391 301.1480 0003393 234.2960 219.8462  1.00271041  9423"
      },
      "geometry": {
        "type": "Point",
        "coordinates": [
          -134.28450001386142,
          -0.8356484314120506
        ]
      }
    }
  ]
}